OBJECT_NAME,OBJECT_ID,EPOCH,MEAN_MOTION,ECCENTRICITY,INCLINATION,RA_OF_ASC_NODE,ARG_OF_PERICENTER,MEAN_ANOMALY,EPHEMERIS_TYPE,CLASSIFICATION_TYPE,NORAD_CAT_ID,ELEMENT_SET_NO,REV_AT_EPOCH,BSTAR,MEAN_MOTION_DOT,MEAN_MOTION_DDOT
QB50P1,2014-033R,2026-06-17T13:05:32.140032,15.18264690,.0007823,98.0960,179.7168,213.7845,146.2890,0,U,40025,999,65308,.28772E-3,.5822E-4,0
DTUSAT-2,2014-033W,2026-06-17T12:03:00.910368,15.15020285,.0006656,98.0862,166.2491,223.9036,136.1666,0,U,40030,999,65273,.27108744E-3,.4992E-4,0
QB50P2,2014-033Y,2026-06-17T11:54:44.212320,15.15161004,.00080527,98.0748,165.3957,162.2116,197.9398,0,U,40032,999,65271,.27942375E-3,.517E-4,0
PERSEUS-M1,2014-033AF,2026-06-17T18:31:48.353088,14.95632050,.0010261,97.9641,112.9133,299.0982,60.9211,0,U,40039,999,65072,.11581E-3,.1227E-4,0
POLYITAN-1,2014-033AJ,2026-06-17T01:15:17.278848,15.33254216,.00086301,98.0938,194.3006,141.6733,218.5122,0,U,40042,999,65357,.49658794E-3,.159E-3,0
TIGRISAT,2014-033AK,2026-06-17T09:14:54.798144,14.85162991,.00505914,97.7829,318.3922,74.5854,286.0942,0,U,40043,999,64565,.1958723E-3,.1661E-4,0
CANX-4,2014-034C,2026-06-17T14:59:38.304096,14.81265369,.0013136,98.3121,43.9539,15.6854,344.4762,0,U,40055,999,64459,.10006E-3,.723E-5,0
CANX-5,2014-034D,2026-06-17T14:57:22.496256,14.81282603,.0013144,98.3123,43.9959,15.9021,344.2600,0,U,40056,999,63540,.10032E-3,.726E-5,0
GONETS-M 10,2014-036C,2026-06-17T21:00:33.252768,12.42945597,.0022676,82.5117,307.2463,139.0933,221.1854,0,U,40063,999,54233,.11199E-3,.26E-6,0
METEOR-M 2,2014-037A,2026-06-17T20:23:17.131776,14.21461001,.0006728,98.5113,144.5645,42.6891,317.4808,0,U,40069,999,61941,-.34188E-5,-.5E-6,0
DX1,2014-037C,2026-06-17T19:57:23.918976,14.89984335,.0005808,98.3867,130.5722,273.1700,86.8852,0,U,40071,999,64620,.95312E-4,.856E-5,0
UKUBE-1,2014-037F,2026-06-17T05:37:29.230176,15.13553312,.00025931,98.4230,171.5112,132.6061,227.5387,0,U,40074,999,64856,.38454744E-3,.6818E-4,0
GAOFEN-2,2014-049A,2026-06-17T20:26:55.150080,14.80896558,.0006131,98.0109,233.0583,224.8950,135.1767,0,U,40118,999,63933,-.99846E-5,-.131E-5,0
BRITE-PL2 (HEWELIUSZ),2014-049B,2026-06-17T18:35:51.171648,14.94594969,.0015304,97.9098,280.7793,106.7717,253.5183,0,U,40119,999,64153,.14446E-3,.1507E-4,0
CBERS 4,2014-079A,2026-06-17T20:58:02.146944,14.35508554,.0001823,98.3530,225.6836,62.5883,297.5489,0,U,40336,999,60405,-.13771E-4,-.82E-6,0
SMAP,2015-003A,2026-06-17T19:58:07.576032,14.63367079,.0001335,98.1276,175.9173,96.9137,263.2217,0,U,40376,999,60771,.7142E-4,.322E-5,0
GONETS-M 11,2015-020A,2026-06-17T21:27:07.739712,12.42877493,.0016615,82.4866,30.5517,4.2848,355.8371,0,U,40552,999,50882,.56591E-3,.88E-6,0
GONETS-M 12,2015-020B,2026-06-17T18:53:01.711968,12.42891130,.0015337,82.4901,31.7423,349.6912,10.3851,0,U,40553,999,50880,.2808E-4,.14E-6,0
GONETS-M 13,2015-020C,2026-06-17T20:10:46.461792,12.42870614,.001365,82.4862,30.3236,334.9385,25.1031,0,U,40554,999,50878,.51433E-3,.81E-6,0
DMC3-FM1,2015-032A,2026-06-17T19:28:33.201696,14.85738646,.0007028,97.6457,33.9623,57.8447,302.3450,0,U,40715,999,59000,.4745E-5,-.1E-6,0
DMC3-FM2,2015-032B,2026-06-17T20:00:18.463392,14.85742471,.0007528,97.6511,35.5574,61.6191,298.5783,0,U,40716,999,59000,-.35514E-5,-.82E-6,0
DMC3-FM3,2015-032C,2026-06-17T20:33:54.235872,14.85734242,.0006746,97.6563,37.3335,62.5540,297.6361,0,U,40717,999,59001,.7548E-4,.604E-5,0
CARBONITE 1 (CBNT-1),2015-032D,2026-06-17T20:34:01.964352,14.83590516,.0013131,97.6501,346.8949,295.8017,64.1842,0,U,40718,999,58944,.23269E-3,.187E-4,0
LILACSAT-2,2015-049K,2026-06-17T20:27:56.987424,15.51463550,.0005534,97.4639,205.7197,241.6012,118.4682,0,U,40908,999,59585,.24503E-3,.14376E-3,0
COSMOS 2507 (RODNIK-S 13),2015-050A,2026-06-17T19:05:47.576256,12.42926706,.0010203,82.4932,79.2919,355.6573,4.4417,0,U,40920,999,48693,.43689E-3,.7E-6,0
COSMOS 2508 (RODNIK-S 14),2015-050B,2026-06-17T19:56:56.783328,12.42913951,.0015168,82.4884,77.7747,25.5555,334.6271,0,U,40921,999,48692,.64868E-4,.19E-6,0
COSMOS 2509 (RODNIK-S 15),2015-050C,2026-06-17T20:26:15.427680,12.42883266,.0015711,82.4892,77.8643,41.6326,318.5947,0,U,40922,999,48696,-.22991E-3,-.22E-6,0
