QB50P1                  
1 40025U 14033R   26168.54551088  .00005822  00000+0  28772-3 0  9996
2 40025  98.0960 179.7168 0007823 213.7845 146.2890 15.18264690653088
DTUSAT-2                
1 40030U 14033W   26168.50209387  .00004992  00000+0  27109-3 0  9990
2 40030  98.0862 166.2491 0006656 223.9036 136.1666 15.15020285652730
QB50P2                  
1 40032U 14033Y   26168.49634505  .00005170  00000+0  27942-3 0  9998
2 40032  98.0748 165.3957 0008052 162.2116 197.9398 15.15161004652718
PERSEUS-M1              
1 40039U 14033AF  26168.77208742  .00001227  00000+0  11581-3 0  9997
2 40039  97.9641 112.9133 0010261 299.0982  60.9211 14.95632050650727
POLYITAN-1              
1 40042U 14033AJ  26168.05228332  .00015900  00000+0  49659-3 0  9999
2 40042  98.0938 194.3006 0008630 141.6733 218.5122 15.33254216653573
TIGRISAT                
1 40043U 14033AK  26168.38535646  .00001661  00000+0  19587-3 0  9991
2 40043  97.7829 318.3922 0050591  74.5854 286.0942 14.85162991645659
CANX-4                  
1 40055U 14034C   26168.62474889  .00000723  00000+0  10006-3 0  9998
2 40055  98.3121  43.9539 0013136  15.6854 344.4762 14.81265369644599
CANX-5                  
1 40056U 14034D   26168.62317704  .00000726  00000+0  10032-3 0  9993
2 40056  98.3123  43.9959 0013144  15.9021 344.2600 14.81282603635405
GONETS-M 10             
1 40063U 14036C   26168.87538487  .00000026  00000+0  11199-3 0  9991
2 40063  82.5117 307.2463 0022676 139.0933 221.1854 12.42945597542333
METEOR-M 2              
1 40069U 14037A   26168.84950384 -.00000050  00000+0 -34188-5 0  9993
2 40069  98.5113 144.5645 0006728  42.6891 317.4808 14.21461001619412
DX1                     
1 40071U 14037C   26168.83152684  .00000856  00000+0  95312-4 0  9999
2 40071  98.3867 130.5722 0005808 273.1700  86.8852 14.89984335646205
UKUBE-1                 
1 40074U 14037F   26168.23436609  .00006818  00000+0  38455-3 0  9996
2 40074  98.4230 171.5112 0002593 132.6061 227.5387 15.13553312648561
GAOFEN-2                
1 40118U 14049A   26168.85202720 -.00000131  00000+0 -99846-5 0  9998
2 40118  98.0109 233.0583 0006131 224.8950 135.1767 14.80896558639336
BRITE-PL2 (HEWELIUSZ)   
1 40119U 14049B   26168.77489782  .00001507  00000+0  14446-3 0  9992
2 40119  97.9098 280.7793 0015304 106.7717 253.5183 14.94594969641533
CBERS 4                 
1 40336U 14079A   26168.87363596 -.00000082  00000+0 -13771-4 0  9991
2 40336  98.3530 225.6836 0001823  62.5883 297.5489 14.35508554604053
SMAP                    
1 40376U 15003A   26168.83203213  .00000322  00000+0  71420-4 0  9998
2 40376  98.1276 175.9173 0001335  96.9137 263.2217 14.63367079607715
GONETS-M 11             
1 40552U 15020A   26168.89383958  .00000088  00000+0  56591-3 0  9994
2 40552  82.4866  30.5517 0016615   4.2848 355.8371 12.42877493508820
GONETS-M 12             
1 40553U 15020B   26168.78682537  .00000014  00000+0  28080-4 0  9990
2 40553  82.4901  31.7423 0015337 349.6912  10.3851 12.42891130508806
GONETS-M 13             
1 40554U 15020C   26168.84081553  .00000081  00000+0  51433-3 0  9990
2 40554  82.4862  30.3236 0013650 334.9385  25.1031 12.42870614508782
DMC3-FM1                
1 40715U 15032A   26168.81149539 -.00000010  00000+0  47450-5 0  9997
2 40715  97.6457  33.9623 0007028  57.8447 302.3450 14.85738646590008
DMC3-FM2                
1 40716U 15032B   26168.83354703 -.00000082  00000+0 -35514-5 0  9999
2 40716  97.6511  35.5574 0007528  61.6191 298.5783 14.85742471590003
DMC3-FM3                
1 40717U 15032C   26168.85687773  .00000604  00000+0  75480-4 0  9991
2 40717  97.6563  37.3335 0006746  62.5540 297.6361 14.85734242590015
CARBONITE 1 (CBNT-1)    
1 40718U 15032D   26168.85696718  .00001870  00000+0  23269-3 0  9994
2 40718  97.6501 346.8949 0013131 295.8017  64.1842 14.83590516589441
LILACSAT-2              
1 40908U 15049K   26168.85274291  .00014376  00000+0  24503-3 0  9998
2 40908  97.4639 205.7197 0005534 241.6012 118.4682 15.51463550595852
COSMOS 2507 (RODNIK-S *)
1 40920U 15050A   26168.79568954  .00000070  00000+0  43689-3 0  9991
2 40920  82.4932  79.2919 0010203 355.6573   4.4417 12.42926706486931
COSMOS 2508 (RODNIK-S *)
1 40921U 15050B   26168.83121277  .00000019  00000+0  64868-4 0  9996
2 40921  82.4884  77.7747 0015168  25.5555 334.6271 12.42913951486921
COSMOS 2509 (RODNIK-S *)
1 40922U 15050C   26168.85156745 -.00000022  00000+0 -22991-3 0  9993
2 40922  82.4892  77.8643 0015711  41.6326 318.5947 12.42883266486966
